GOES 18
1 51850U 22021A   26182.77130932  .00000107  00000+0  00000+0 0  9993
2 51850   0.0058 307.6791 0000560 188.3702 284.4375  1.00271354  6739
